[
    {
        "Altitude(m)": 702999.2424250691,
        "Argument of Periapsis(deg)": 0.010251109067964361,
        "Eccentricity": 0.0,
        "Inclination(deg)": 45.0,
        "Latitude(deg)": 4.184321653674123,
        "Longitude(deg)": 135.1337480422057,
        "Mean Anomaly(deg)": 174.01629498273275,
        "RAAN(deg)": 59.99032325268762,
        "Satellite Name": "Constellation 1 274",
        "Satellite Number": 274,
        "Semi-Major Axis(m)": 7083131.272910544,
        "Time(s)": 171
    },
    {
        "Altitude(m)": 703002.8430267893,
        "Argument of Periapsis(deg)": 0.010311057074209765,
        "Eccentricity": 0.0,
        "Inclination(deg)": 45.0,
        "Latitude(deg)": 4.14121556691592,
        "Longitude(deg)": 135.17272818173984,
        "Mean Anomaly(deg)": 174.07699612298268,
        "RAAN(deg)": 59.99026666352204,
        "Satellite Name": "Constellation 1 274",
        "Satellite Number": 274,
        "Semi-Major Axis(m)": 7083131.272910544,
        "Time(s)": 172
    },
    {
        "Altitude(m)": 703006.464452084,
        "Argument of Periapsis(deg)": 0.010371005080455171,
        "Eccentricity": 0.0,
        "Inclination(deg)": 45.0,
        "Latitude(deg)": 4.098107142724451,
        "Longitude(deg)": 135.21170360362868,
        "Mean Anomaly(deg)": 174.13769726323258,
        "RAAN(deg)": 59.99021007435647,
        "Satellite Name": "Constellation 1 274",
        "Satellite Number": 274,
        "Semi-Major Axis(m)": 7083131.272910544,
        "Time(s)": 173
    },
    {
        "Altitude(m)": 703010.1067034665,
        "Argument of Periapsis(deg)": 0.010430953086700577,
        "Eccentricity": 0.0,
        "Inclination(deg)": 45.0,
        "Latitude(deg)": 4.054996406480382,
        "Longitude(deg)": 135.2506743566967,
        "Mean Anomaly(deg)": 174.19839840348243,
        "RAAN(deg)": 59.990153485190895,
        "Satellite Name": "Constellation 1 274",
        "Satellite Number": 274,
        "Semi-Major Axis(m)": 7083131.272910544,
        "Time(s)": 174
    },
    {
        "Altitude(m)": 703013.769783347,
        "Argument of Periapsis(deg)": 0.010490901092945983,
        "Eccentricity": 0.0,
        "Inclination(deg)": 45.0,
        "Latitude(deg)": 4.011883383555217,
        "Longitude(deg)": 135.28964048975794,
        "Mean Anomaly(deg)": 174.25909954373236,
        "RAAN(deg)": 59.990096896025335,
        "Satellite Name": "Constellation 1 274",
        "Satellite Number": 274,
        "Semi-Major Axis(m)": 7083131.272910544,
        "Time(s)": 175
    },
    {
        "Altitude(m)": 703017.4536940466,
        "Argument of Periapsis(deg)": 0.010550849099191389,
        "Eccentricity": 0.0,
        "Inclination(deg)": 45.0,
        "Latitude(deg)": 3.9687680993116694,
        "Longitude(deg)": 135.32860205161575,
        "Mean Anomaly(deg)": 174.31980068398227,
        "RAAN(deg)": 59.99004030685976,
        "Satellite Name": "Constellation 1 274",
        "Satellite Number": 274,
        "Semi-Major Axis(m)": 7083131.272910544,
        "Time(s)": 176
    },
    {
        "Altitude(m)": 703021.1584377985,
        "Argument of Periapsis(deg)": 0.010610797105436795,
        "Eccentricity": 0.0,
        "Inclination(deg)": 45.0,
        "Latitude(deg)": 3.9256505791037455,
        "Longitude(deg)": 135.36755909106324,
        "Mean Anomaly(deg)": 174.38050182423217,
        "RAAN(deg)": 59.98998371769419,
        "Satellite Name": "Constellation 1 274",
        "Satellite Number": 274,
        "Semi-Major Axis(m)": 7083131.272910544,
        "Time(s)": 177
    },
    {
        "Altitude(m)": 703024.8840167348,
        "Argument of Periapsis(deg)": 0.0106707451116822,
        "Eccentricity": 0.0,
        "Inclination(deg)": 45.0,
        "Latitude(deg)": 3.8825308482768444,
        "Longitude(deg)": 135.40651148878635,
        "Mean Anomaly(deg)": 174.441202964482,
        "RAAN(deg)": 59.98992712852862,
        "Satellite Name": "Constellation 1 274",
        "Satellite Number": 274,
        "Semi-Major Axis(m)": 7083131.272910544,
        "Time(s)": 178
    },
    {
        "Altitude(m)": 703028.6304328969,
        "Argument of Periapsis(deg)": 0.010730693117927606,
        "Eccentricity": 0.0,
        "Inclination(deg)": 45.0,
        "Latitude(deg)": 3.839408932166893,
        "Longitude(deg)": 135.44545962975207,
        "Mean Anomaly(deg)": 174.50190410473198,
        "RAAN(deg)": 59.98987053936306,
        "Satellite Name": "Constellation 1 274",
        "Satellite Number": 274,
        "Semi-Major Axis(m)": 7083131.272910544,
        "Time(s)": 179
    },
    {
        "Altitude(m)": 703032.3976882446,
        "Argument of Periapsis(deg)": 0.01079064112417301,
        "Eccentricity": 0.0,
        "Inclination(deg)": 45.0,
        "Latitude(deg)": 3.7962848561024165,
        "Longitude(deg)": 135.4844033946259,
        "Mean Anomaly(deg)": 174.56260524498185,
        "RAAN(deg)": 59.98981395019749,
        "Satellite Name": "Constellation 1 274",
        "Satellite Number": 274,
        "Semi-Major Axis(m)": 7083131.272910544,
        "Time(s)": 180
    },
    {
        "Altitude(m)": 703036.1857846276,
        "Argument of Periapsis(deg)": 0.010850589130418416,
        "Eccentricity": 0.0,
        "Inclination(deg)": 45.0,
        "Latitude(deg)": 3.75315864540287,
        "Longitude(deg)": 135.52334283216084,
        "Mean Anomaly(deg)": 174.62330638523176,
        "RAAN(deg)": 59.98975736103191,
        "Satellite Name": "Constellation 1 274",
        "Satellite Number": 274,
        "Semi-Major Axis(m)": 7083131.272910544,
        "Time(s)": 181
    },
    {
        "Altitude(m)": 703039.9947238166,
        "Argument of Periapsis(deg)": 0.01091053713666382,
        "Eccentricity": 0.0,
        "Inclination(deg)": 45.0,
        "Latitude(deg)": 3.7100303253796216,
        "Longitude(deg)": 135.56227799109976,
        "Mean Anomaly(deg)": 174.68400752548172,
        "RAAN(deg)": 59.98970077186634,
        "Satellite Name": "Constellation 1 274",
        "Satellite Number": 274,
        "Semi-Major Axis(m)": 7083131.272910544,
        "Time(s)": 182
    },
    {
        "Altitude(m)": 703043.8245074779,
        "Argument of Periapsis(deg)": 0.010970485142909228,
        "Eccentricity": 0.0,
        "Inclination(deg)": 45.0,
        "Latitude(deg)": 3.6668999213356974,
        "Longitude(deg)": 135.60120892017605,
        "Mean Anomaly(deg)": 174.74470866573154,
        "RAAN(deg)": 59.989644182700786,
        "Satellite Name": "Constellation 1 274",
        "Satellite Number": 274,
        "Semi-Major Axis(m)": 7083131.272910544,
        "Time(s)": 183
    },
    {
        "Altitude(m)": 703047.6751372042,
        "Argument of Periapsis(deg)": 0.011030433149154634,
        "Eccentricity": 0.0,
        "Inclination(deg)": 45.0,
        "Latitude(deg)": 3.6237674585658404,
        "Longitude(deg)": 135.6401356681135,
        "Mean Anomaly(deg)": 174.8054098059814,
        "RAAN(deg)": 59.98958759353521,
        "Satellite Name": "Constellation 1 274",
        "Satellite Number": 274,
        "Semi-Major Axis(m)": 7083131.272910544,
        "Time(s)": 184
    },
    {
        "Altitude(m)": 703051.5466144661,
        "Argument of Periapsis(deg)": 0.01109038115540004,
        "Eccentricity": 0.0,
        "Inclination(deg)": 45.0,
        "Latitude(deg)": 3.580632962357089,
        "Longitude(deg)": 135.6790581155292,
        "Mean Anomaly(deg)": 174.86611094623132,
        "RAAN(deg)": 59.98953100436964,
        "Satellite Name": "Constellation 1 274",
        "Satellite Number": 274,
        "Semi-Major Axis(m)": 7083131.272910544,
        "Time(s)": 185
    },
    {
        "Altitude(m)": 703055.4389406751,
        "Argument of Periapsis(deg)": 0.011150329161645444,
        "Eccentricity": 0.0,
        "Inclination(deg)": 45.0,
        "Latitude(deg)": 3.537496457987897,
        "Longitude(deg)": 135.71797664732213,
        "Mean Anomaly(deg)": 174.9268120864813,
        "RAAN(deg)": 59.989474415204064,
        "Satellite Name": "Constellation 1 274",
        "Satellite Number": 274,
        "Semi-Major Axis(m)": 7083131.272910544,
        "Time(s)": 186
    },
    {
        "Altitude(m)": 703059.3521171166,
        "Argument of Periapsis(deg)": 0.01121027716789085,
        "Eccentricity": 0.0,
        "Inclination(deg)": 45.0,
        "Latitude(deg)": 3.494357970729515,
        "Longitude(deg)": 135.75689114409064,
        "Mean Anomaly(deg)": 174.98751322673112,
        "RAAN(deg)": 59.989417826038505,
        "Satellite Name": "Constellation 1 274",
        "Satellite Number": 274,
        "Semi-Major Axis(m)": 7083131.272910544,
        "Time(s)": 187
    },
    {
        "Altitude(m)": 703063.2861450138,
        "Argument of Periapsis(deg)": 0.011270225174136258,
        "Eccentricity": 0.0,
        "Inclination(deg)": 45.0,
        "Latitude(deg)": 3.4512175258449176,
        "Longitude(deg)": 135.7958016545213,
        "Mean Anomaly(deg)": 175.04821436698103,
        "RAAN(deg)": 59.98936123687293,
        "Satellite Name": "Constellation 1 274",
        "Satellite Number": 274,
        "Semi-Major Axis(m)": 7083131.272910544,
        "Time(s)": 188
    },
    {
        "Altitude(m)": 703067.2410254696,
        "Argument of Periapsis(deg)": 0.011330173180381662,
        "Eccentricity": 0.0,
        "Inclination(deg)": 45.0,
        "Latitude(deg)": 3.4080751485897043,
        "Longitude(deg)": 135.8347082272912,
        "Mean Anomaly(deg)": 175.1089155072309,
        "RAAN(deg)": 59.98930464770736,
        "Satellite Name": "Constellation 1 274",
        "Satellite Number": 274,
        "Semi-Major Axis(m)": 7083131.272910544,
        "Time(s)": 189
    }
]